[{"OBJECT_NAME":"STARLINK-35150","OBJECT_ID":"2025-210P","EPOCH":"2026-03-09T22:13:57.615456","MEAN_MOTION":15.30218997,"ECCENTRICITY":0.00011319,"INCLINATION":53.1599,"RA_OF_ASC_NODE":306.2381,"ARG_OF_PERICENTER":113.8482,"MEAN_ANOMALY":246.2638,"EPHEMERIS_TYPE":0,"CLASSIFICATION_TYPE":"U","NORAD_CAT_ID":65635,"ELEMENT_SET_NO":999,"REV_AT_EPOCH":2776,"BSTAR":0.0010334987,"MEAN_MOTION_DOT":0.00030393,"MEAN_MOTION_DDOT":0},{"OBJECT_NAME":"COSMOS 2251 DEB","OBJECT_ID":"1993-036ACD","EPOCH":"2026-03-09T07:40:43.610016","MEAN_MOTION":15.34387517,"ECCENTRICITY":0.00153475,"INCLINATION":74.0247,"RA_OF_ASC_NODE":157.5248,"ARG_OF_PERICENTER":323.6748,"MEAN_ANOMALY":36.3413,"EPHEMERIS_TYPE":0,"CLASSIFICATION_TYPE":"U","NORAD_CAT_ID":34859,"ELEMENT_SET_NO":999,"REV_AT_EPOCH":89676,"BSTAR":0.0069097076,"MEAN_MOTION_DOT":0.00238319,"MEAN_MOTION_DDOT":0}]
